0 NTS 2
1 10091U 77053A   23261.42059883 -.00000018  00000-0  00000+0 0  9995
2 10091  63.8063 312.7969 0071150 224.4053 133.4022  2.00451973338572
0 OPS 5112 (NAVSTAR 2)
1 10893U 78047A   23260.34984448 -.00000006  00000-0  00000-0 0  9991
2 10893  63.3823 305.0186 0517450  45.1306 320.4430  2.01626665333494
0 OPS 5117 (NAVSTAR 5)
1 11690U 80011A   23253.01867139  .00000024  00000-0  00000-0 0  9993
2 11690  64.0685  79.6702 0481430 203.5343 342.7588  2.00566002333444
0 COSMOS 1413 (GLONASS)
1 13603U 82100A   23260.34819875  .00000048  00000-0  00000-0 0  9994
2 13603  64.3292 101.7655 0007027  23.4781 154.9292  2.13867340319703
0 COSMOS 1414 (GLONASS)
1 13606U 82100D   23261.69504670  .00000048  00000-0  00000-0 0  9990
2 13606  64.2803 105.8099 0076881  31.0904 150.7682  2.13103813318531
0 COSMOS 1492 (GLONASS)
1 14260U 83084C   23258.23356775  .00000056  00000-0  00000-0 0  9995
2 14260  64.3249 109.0701 0000912 345.3494 202.6385  2.12759385310175
0 COSMOS 1520 (GLONASS)
1 14591U 83127B   23259.67207486 -.00000068  00000-0  00000-0 0  9997
2 14591  66.6668   1.7038 0023553 174.9114 165.2085  2.13102248249548
0 COSMOS 1554 (GLONASS)
1 14977U 84047A   23261.69008976 -.00000062  00000-0  00000+0 0  9998
2 14977  66.6356   0.8127 0018270 220.6191 153.8591  2.13099577278179
0 COSMOS 1555 (GLONASS)
1 14978U 84047B   23261.70887284 -.00000061  00000-0  00000-0 0  9998
2 14978  66.6443   1.2822 0012336 180.1758 204.2575  2.13101615278147
0 COSMOS 1556 (GLONASS)
1 14979U 84047C   23257.35287264 -.00000081  00000-0  00000-0 0  9999
2 14979  66.6611   2.4615 0009484 194.3425 132.3385  2.12912343305650
0 NAVSTAR 9 (USA 1)
1 15039U 84059A   23259.51583023  .00000045  00000-0  00000-0 0  9991
2 15039  62.8908  93.3985 0224267  48.8907 169.4000  1.92302965278801
0 COSMOS 1593 (GLONASS)
1 15259U 84095A   23261.29068861  .00000049  00000-0  00000-0 0  9995
2 15259  64.3597 107.3101 0024055 208.8269   5.3238  2.13105009257008
0 COSMOS 1594 (GLONASS)
1 15260U 84095B   23259.15952137  .00000054  00000-0  00000-0 0  9993
2 15260  64.3018 109.0253 0005774 190.4705 346.9677  2.12637261303128
0 COSMOS 1650 (GLONASS)
1 15697U 85037A   23261.33720219  .00000049  00000-0  00000-0 0  9995
2 15697  64.3937 107.7519 0033620  28.4358 176.2927  2.13102416274924
0 COSMOS 1710 (GLONASS)
1 16396U 85118A   23259.21311880 -.00000070  00000-0  00000-0 0  9991
2 16396  66.3715 357.3556 0012714 205.9960 166.0707  2.13103210293717
0 COSMOS 1711 (GLONASS)
1 16397U 85118B   23263.47203031 -.00000061  00000-0  00000+0 0  9992
2 16397  66.3846 357.4070 0009124 189.9029 185.6200  2.13101435293737
0 COSMOS 1712 (GLONASS)
1 16398U 85118C   23261.68062456 -.00000062  00000-0  00000-0 0  9990
2 16398  66.3732 358.0111 0010245  15.7009   2.9583  2.12920132292708
0 COSMOS 1779 (GLONASS)
1 16962U 86071B   23261.21034723  .00000049  00000-0  00000-0 0  9995
2 16962  64.3951 106.8859 0012002  44.1615  93.0579  2.13102972287879
0 COSMOS 1883 (GLONASS)
1 18355U 87079A   23260.19973203 -.00000064  00000-0  00000-0 0  9991
2 18355  65.9980 352.3201 0004348 261.0200 112.5449  2.13100962280142
0 COSMOS 1946 (GLONASS)
1 19163U 88043A   23261.68718515  .00000048  00000-0  00000-0 0  9990
2 19163  64.4764 107.9551 0004237 109.6294  58.8364  2.13103220274234
0 COSMOS 1970 (GLONASS)
1 19501U 88085A   23260.64302395 -.00000061  00000-0  00000-0 0  9998
2 19501  65.7019 348.4392 0008357  41.7798  32.2199  2.13101977272398
0 COSMOS 1971 (GLONASS)
1 19502U 88085B   23261.71848712 -.00000059  00000-0  00000-0 0  9993
2 19502  65.6957 348.3281 0021616  16.6993   9.5939  2.13101579257992
0 COSMOS 1972 (GLONASS)
1 19503U 88085C   23258.79149442 -.00000067  00000-0  00000-0 0  9991
2 19503  65.7293 348.8475 0004891 208.2945 186.2248  2.13102169272213
0 COSMOS 2022 (GLONASS)
1 20024U 89039A   23259.29036338 -.00000063  00000-0  00000-0 0  9992
2 20024  65.4377 345.2350 0008727 214.3505 171.0011  2.13102100266924
0 NAVSTAR 15 (USA 42)
1 20185U 89064A   23260.65348855  .00000037  00000-0  00000-0 0  9990
2 20185  54.3692 123.6977 0010901 303.6842  53.0369  1.86087603237523
0 NAVSTAR 18 (USA 50)
1 20452U 90008A   23260.92723748  .00000030  00000-0  00000-0 0  9998
2 20452  54.7227 168.6878 0013525 268.4819 308.7973  1.89597896237405
0 NAVSTAR 19 (USA 54)
1 20533U 90025A   23261.64020703  .00000013  00000-0  00000-0 0  9999
2 20533  54.1916 282.7663 0043348 209.7339 347.6260  1.91039771235860
0 COSMOS 2080 (GLONASS)
1 20620U 90045B   23262.49598553 -.00000056  00000-0  00000+0 0  9992
2 20620  65.2364 342.8524 0021983  34.0076 324.2175  2.13102617259484
0 COSMOS 2081 (GLONASS)
1 20621U 90045C   23260.60256941 -.00000058  00000-0  00000-0 0  9999
2 20621  65.2594 343.1881 0041401 218.7013 117.8092  2.13104698259293
0 NAVSTAR 22 (USA 66)
1 20959U 90103A   23261.30085483  .00000016  00000-0  00000-0 0  9990
2 20959  55.3118  86.2271 0020381  76.4574 283.8275  1.88155627236990
0 COSMOS 2110 (GLONASS)
1 21007U 90110B   23261.71658278  .00000048  00000-0  00000-0 0  9991
2 21007  64.4278 105.9834 0045212 198.2053 342.3409  2.13101467255108
0 COSMOS 2178 (GLONASS)
1 21854U 92005B   23260.12688219  .00000051  00000-0  00000-0 0  9992
2 21854  64.3661 104.5885 0030901  30.7876 153.4642  2.13106061246134
0 COSMOS 2179 (GLONASS)
1 21855U 92005C   23260.58704824  .00000049  00000-0  00000+0 0  9990
2 21855  64.3652 104.5849 0010712 231.6837 130.6807  2.13102902246198
0 COSMOS 2236 (GLONASS)
1 22513U 93010B   23260.32554748  .00000050  00000-0  00000-0 0  9992
2 22513  64.3712 104.5290 0005150  91.3408  87.3790  2.13104723237981
0 NAVSTAR 31 (USA 90)
1 22581U 93017A   23261.51416545 -.00000070  00000-0  00000+0 0  9990
2 22581  54.9479 334.0798 0001936  89.8104 267.0160  1.88945456215719
0 NAVSTAR 32 (USA 91)
1 22657U 93032A   23261.35463574 -.00000045  00000-0  00000-0 0  9990
2 22657  54.4392 316.5199 0039655  72.0050 289.9091  1.87695669215088
0 COSMOS 2288 (GLONASS)
1 23205U 94050C   23260.10330719  .00000048  00000-0  00000-0 0  9999
2 23205  65.4502 234.8066 0002002 301.1322 164.2996  2.13101244226433
0 COSMOS 2294 (GLONASS)
1 23398U 94076C   23259.15952137  .00000052  00000-0  00000-0 0  9992
2 23398  64.2986 103.5063 0003829  38.8957 147.9000  2.13101842224261
0 COSMOS 2316 (GLONASS)
1 23620U 95037A   23258.90068965  .00000037  00000-0  00000-0 0  9990
2 23620  65.5090 235.4362 0012904 166.2438  48.8649  2.13101323219019
0 NAVSTAR 38 (USA 126)
1 23953U 96041A   23260.61692413  .00000010  00000-0  00000-0 0  9998
2 23953  55.1226  81.5493 0058980  94.2953 277.4472  1.88695956195855
0 NAVSTAR 39 (USA 128)
1 24320U 96056A   23259.60193201  .00000015  00000-0  00000-0 0  9996
2 24320  54.3366 271.8805 0027401 200.3476 339.9467  1.86499350191778
0 COSMOS 2374 (GLONASS)
1 26566U 00063C   23258.45208351 -.00000068  00000-0  00000-0 0  9997
2 26566  65.6482 347.6811 0074174 213.8307 223.3695  2.13099763178326
0 COSMOS 2396 (GLONASS)
1 27618U 02060B   23261.29801485 -.00000060  00000-0  00000-0 0  9990
2 27618  65.8749 349.3704 0007625 142.9625 259.7025  2.13099770161257
0 COSMOS 2404 (GLONASS)
1 28112U 03056A   23261.64564001  .00000043  00000-0  00000-0 0  9995
2 28112  63.6585  97.5363 0046268  73.4060 294.1398  2.13088348153864
0 COSMOS 2402 (GLONASS)
1 28113U 03056B   23261.71363762  .00000043  00000-0  00000-0 0  9995
2 28113  63.6750  97.6304 0045251  76.1139 112.8273  2.13105164153889
0 COSMOS 2413 (GLONASS)
1 28508U 04053A   23261.71120449  .00000042  00000-0  00000-0 0  9993
2 28508  63.6023  95.7844 0007513 198.8229  13.8643  2.13104260145764
0 COSMOS 2411 (GLONASS)
1 28509U 04053B   23261.70972769  .00000042  00000-0  00000-0 0  9993
2 28509  63.5982  95.7323 0004548 173.8759  35.2748  2.13102370145759
0 COSMOS 2444 (GLONASS)
1 33380U 08046C   23259.69957446 -.00000064  00000-0  00000-0 0  9997
2 33380  65.9370 348.7313 0019675 295.0831  50.2341  2.13112490116538
0 COSMOS 2449 (GLONASS)
1 33467U 08067B   23260.58535345  .00000049  00000-0  00000-0 0  9998
2 33467  64.2764 103.9261 0030773 234.1669 125.6311  2.13096934114571
0 COSMOS 2448 (GLONASS)
1 33468U 08067C   23260.41014725  .00000049  00000-0  00000-0 0  9995
2 33468  64.2824 103.9498 0003199 271.2661  88.7827  2.13115917114649
0 COSMOS 2459 (GLONASS)
1 36400U 10007A   23259.90327097 -.00000063  00000-0  00000-0 0  9999
2 36400  65.8993 348.3260 0025307 344.6229  58.9325  2.13117117105426
0 COSMOS 2465 (GLONASS)
1 37138U 10041B   23261.35428708  .00000054  00000-0  00000-0 0  9998
2 37138  63.9288 224.6608 0039726 178.3701 265.0211  2.13098194101491
0 NAVSTAR 67 (USA 239)
1 38833U 12053A   23263.17145863  .00000027  00000-0  00000+0 0  9995
2 38833  53.5116 184.5461 0143035  52.2532 309.0612  2.00567452 80259
0 COSMOS 2492 (GLONASS)
1 39620U 14012A   23262.93737336 -.00000058  00000-0  00000+0 0  9997
2 39620  65.7631 347.7464 0011763 314.1143  45.8447  2.13103131 73906
0 BEIDOU 3M1
1 43001U 17069A   23261.64074682  .00000028  00000-0  00000-0 0  9992
2 43001  55.8530  96.3488 0007422 300.2700  59.7301  1.86231653 39935
0 BEIDOU 3M2
1 43002U 17069B   23261.04056195  .00000028  00000-0  00000-0 0  9996
2 43002  55.8520  96.4043 0005844 334.6080  25.4396  1.86231204 39915
0 BEIDOU 3M23
1 44542U 19061A   23263.36146732  .00000052  00000-0  00000+0 0  9990
2 44542  54.4846 216.5177 0008473 342.7964  17.1580  1.86231496 27155
0 BEIDOU 3M24
1 44543U 19061B   23263.10952410  .00000052  00000-0  00000+0 0  9991
2 44543  54.4830 216.4958 0005882 327.8325 135.1174  1.86231813 27143
0 BEIDOU 3M21
1 44793U 19078A   23261.59602101 -.00000072  00000-0  00000-0 0  9990
2 44793  54.7482 334.8148 0004756  15.7495 344.3300  1.86232289 25974
0 BEIDOU 3M22
1 44794U 19078B   23262.26350132 -.00000071  00000-0  00000+0 0  9998
2 44794  54.7216 334.7734 0002747   2.9833 357.0824  1.86232682 25993
0 COSMOS 2544 (GLONASS)
1 44850U 19088A   23262.62682007  .00000049  00000-0  00000+0 0  9995
2 44850  65.0835 107.2794 0011191 250.3101 109.6497  2.13102166 29352
0 BEIDOU 3M19
1 44864U 19090A   23263.32285216  .00000029  00000-0  00000+0 0  9990
2 44864  55.7172  96.1167 0015284 274.5008 269.5741  1.86231792 25584
0 BEIDOU 3M20
1 44865U 19090B   23262.11716159  .00000027  00000-0  00000+0 0  9990
2 44865  55.7179  96.1898 0013082 290.0833 255.4157  1.86231809 25557
0 COSMOS 2545 (GLONASS)
1 45358U 20018A   23262.35436075 -.00000060  00000-0  00000+0 0  9990
2 45358  64.8388 347.4027 0010479 238.8157 121.1373  2.13102585 27314
0 NAVSTAR 79 (USA 304)
1 45854U 20041A   23263.32606859  .00000001  00000-0  00000+0 0  9998
2 45854  55.8967  68.0933 0036858 186.6028 348.0003  2.00563125 23959
0 COSMOS 2547 (GLONASS)
1 46805U 20075A   23262.54323932  .00000064  00000-0  00000+0 0  9992
2 46805  64.6151 225.9923 0008272 243.9725 115.9291  2.13102872 22560
0 NAVSTAR 80 (USA 309)
1 46826U 20078A   23262.80664591  .00000052  00000-0  00000+0 0  9993
2 46826  54.3058 251.4360 0036178 195.0540 300.0455  2.00562755 21410
0 NAVSTAR 81 (USA 319)
1 48859U 21054A   23263.41313627 -.00000075  00000-0  00000+0 0  9991
2 48859  55.3410  12.5839 0012661 212.3654 183.4649  2.00572719 16679
0 COSMOS 2557 (GLONASS)
1 52984U 22075A   23262.23665849 -.00000061  00000-0  00000+0 0  9999
2 52984  64.7560 349.5644 0012256 275.2283  84.6849  2.13102327  9344
0 COSMOS 2559 (GLONASS)
1 54031U 22130A   23261.70942260 -.00000062  00000-0  00000+0 0  9993
2 54031  64.7275 349.7098 0007389 219.2710 140.7278  2.13101525  7326
0 COSMOS 2564 (GLONASS)
1 54377U 22161A   23262.37170709  .00000063  00000-0  00000+0 0  9995
2 54377  64.7559 226.0537 0010529 225.7285 134.1714  2.13102165  6285
0 NAVSTAR 82 (USA 343)
1 55268U 23009A   23262.59589436  .00000032  00000-0  00000+0 0  9998
2 55268  55.0881 187.8164 0004614  91.7836 114.4272  2.00554732  5148
0 COSMOS 2569 (GLONASS)
1 57517U 23114A   23263.32994363  .00000049  00000-0  00000+0 0  9993
2 57517  64.8069 106.5038 0008835 297.4322  62.5556  2.13103969   931
